ONEWEB-0349             
1 49281U 21090C   24232.49223503  .00000117  00000+0  25569-3 0  9995
2 49281  87.9191  47.0648 0001695  86.4002 273.7325 13.20774669141821
ONEWEB-0353             
1 49282U 21090D   24233.02784975 -.00000091  00000+0 -27938-3 0  9996
2 49282  87.8919  62.2048 0001447  86.2293 273.9002 13.14503638141358
ONEWEB-0356             
1 49283U 21090E   24232.41492038  .00000086  00000+0  17918-3 0  9994
2 49283  87.9190  47.0742 0002336  69.0823 291.0561 13.20771425141819
ONEWEB-0358             
1 49284U 21090F   24233.20247102  .00000159  00000+0  35829-3 0  9995
2 49284  87.9192  46.9038 0002024  86.1453 273.9911 13.20769345143932
ONEWEB-0359             
1 49285U 21090G   24232.44174978  .00000322  00000+0  75995-3 0  9991
2 49285  87.9192  47.0735 0002073  97.7762 262.3607 13.20770554142526
ONEWEB-0360             
1 49286U 21090H   24232.88682207  .00000100  00000+0  21359-3 0  9998
2 49286  87.9189  46.9891 0001812  91.9763 268.1578 13.20772924143188
ONEWEB-0361             
1 49287U 21090J   24232.48909477  .00000068  00000+0  13575-3 0  9990
2 49287  87.9189  47.0631 0001758  82.4928 277.6405 13.20772410142295
ONEWEB-0362             
1 49288U 21090K   24233.12669189  .00000155  00000+0  35499-3 0  9992
2 49288  87.9099  77.4971 0001580  96.0174 264.1139 13.19729227139889
